FLOCK 1C-3              
1 40041U 14033AH  17125.42186005  .00000828  00000-0  94821-4 0  9998
2 40041  97.9285  37.8838 0014707  71.4371 288.8403 14.88576795156128
POLYITAN-1              
1 40042U 14033AJ  17125.62057605  .00000334  00000-0  42385-4 0  9994
2 40042  97.9224  36.7476 0016331  74.3310 285.9706 14.88014488155587
TIGRISAT                
1 40043U 14033AK  17125.61172187  .00000171  00000-0  32903-4 0  9991
2 40043  97.8632  11.4802 0061685  71.6554 289.1351 14.73958118154262
LEMUR-1                 
1 40044U 14033AL  17125.45204620  .00000151  00000-0  30016-4 0  9993
2 40044  97.8630  11.0836 0060843  73.2001 287.5870 14.73783260154121
AEROCUBE 6A             
1 40045U 14033AM  17125.39292905  .00000414  00000-0  67713-4 0  9996
2 40045  97.8742  12.3021 0059969  67.9603 292.7961 14.74779589154175
AEROCUBE 6B             
1 40046U 14033AN  17125.59656303  .00000376  00000-0  62242-4 0  9994
2 40046  97.8736  12.4373 0059202  66.9416 293.8021 14.74781274154208
UKUBE-1                 
1 40074U 14037F   17125.52978614  .00000435  00000-0  60082-4 0  9990
2 40074  98.3400 238.5433 0004487 174.8157 185.3101 14.83464454152858
BRITE-PL 2              
1 40119U 14049B   17125.20025252  .00000138  00000-0  23123-4 0  9994
2 40119  97.9361 211.3284 0016543 226.2906 133.6939 14.84118978146780
FIREBIRD 4              
1 40378U 15003C   17125.54228946  .00002518  00000-0  11027-3 0  9997
2 40378  99.1215 301.0430 0137788 143.2673 217.8096 15.15162944124549
GRIFEX                  
1 40379U 15003D   17125.52490335  .00001661  00000-0  78551-4 0  9993
2 40379  99.1227 298.9819 0143347 150.3240 210.6217 15.12767756124438
EXOCUBE                 
1 40380U 15003E   17125.53576116  .00001521  00000-0  74624-4 0  9990
2 40380  99.1264 297.8355 0146751 153.9023 206.9696 15.11340275124345
DEORBITSAIL             
1 40719U 15032E   17125.61719639  .00000392  00000-0  64292-4 0  9991
2 40719  97.9851  19.8975 0015140 282.5380  77.4136 14.76011801 98048
TIANWANG 1C (TW-1C)     
1 40926U 15051B   17125.38455751  .00007028  00000-0  16599-3 0  9997
2 40926  97.2338 165.2860 0010885 332.8691 147.8309 15.42105845 90328
TIANWANG 1B (TW-1B)     
1 40927U 15051C   17125.61880865  .00006859  00000-0  16796-3 0  9992
2 40927  97.2428 165.5530 0011153 342.5321 135.9686 15.41018698 90316
TIANWANG 1A (TW-1A)     
1 40928U 15051D   17125.41995279  .00003656  00000-0  10698-3 0  9994
2 40928  97.2313 162.0037 0012824   0.2240 115.0092 15.35810333 90137
LEMUR-2-JOEL            
1 40932U 15052C   17125.35547195  .00000942  00000-0  40543-4 0  9991
2 40932   6.0064 173.7377 0014374   8.2477 351.8039 14.77449493 86665
LEMUR-2-CHRIS           
1 40933U 15052D   17125.29446403  .00001056  00000-0  55766-4 0  9995
2 40933   6.0035 173.0957 0014956  10.5403 349.5324 14.77595932 86663
LEMUR-2-JEROEN          
1 40934U 15052E   17125.31379854  .00001522  00000-0  12226-3 0  9995
2 40934   6.0051 177.8067 0012028 355.5576   4.5181 14.76914014 86593
LEMUR-2-PETER           
1 40935U 15052F   17125.32685278  .00000931  00000-0  40700-4 0  9999
2 40935   6.0034 179.0280 0011090 355.7356   4.3125 14.76703044 86597
EXACTVIEW 9             
1 40936U 15052G   17123.69292797  .00000952  00000-0  44379-4 0  9997
2 40936   6.0045 192.7838 0011799 325.0867  34.8487 14.76235951 86343
ATHENOXAT 1             
1 41168U 15077C   17125.40168981  .00002314  00000-0  93987-4 0  9993
2 41168  14.9874 121.9443 0012414 142.0692  91.9244 15.11454386 76555
GALASSIA                
1 41170U 15077E   17125.55772016  .00001752  00000-0  60617-4 0  9991
2 41170  14.9882 117.4366 0013627 162.7989 197.2794 15.11970399 76610
VELOX 2                 
1 41171U 15077F   17125.53692418  .00001476  00000-0  49080-4 0  9991
2 41171  14.9904 128.5118 0009241 122.1437 237.9781 15.09780935 76518
AGGIESAT 4              
1 41313U 98067HP  17125.51729249  .00016149  00000-0  12466-3 0  9990
2 41313  51.6360 221.5147 0004681 339.8005  20.2808 15.72102960 72219
BEVO 2                  
1 41314U 98067HQ  17125.48553385  .00162067  21603-4  38224-3 0  9990
2 41314  51.6227 199.6994 0008940 352.6781   7.4095 15.96416183 72297
HORYU-IV                
1 41340U 16012D   17125.08324016  .00000618  00000-0  41085-4 0  9999
2 41340  31.0063  23.0007 0014155   6.5017 353.5800 15.00553630 66536
OUFTI-1                 
1 41458U 16025C   17125.63989929  .00003160  00000-0  17191-3 0  9999
2 41458  98.1894 160.7704 0175596  71.9808 290.0461 15.02996881 56196
E-ST@R-II               
1 41459U 16025D   17125.58992360  .00002018  00000-0  11157-3 0  9994
2 41459  98.1890 160.6836 0176667  72.2785 289.7625 15.02837461 56179
AAUSAT 4                
1 41460U 16025E   17125.54504004  .00003288  00000-0  17857-3 0  9999
2 41460  98.1836 160.7164 0170347  71.2457 290.7149 15.03676759 56186
DIWATA-1                
1 41463U 98067HT  17125.54701115  .00007458  00000-0  90798-4 0  9999
2 41463  51.6419 240.3819 0000869  25.4822  63.7329 15.61658114 58134
MINXSS                  
1 41474U 98067HU  17125.52237589  .05724416  12300-4  86147-3 0  9995
2 41474  51.6449 208.6967 0008167 329.0747  30.9230 16.33400422 55623
STMSAT-1                
1 41476U 98067HW  17110.92644424  .05491109  12138-4  11894-2 0  9990
2 41476  51.6168 282.7472 0011810 288.2314  71.7422 16.29591596 53242
NODES 2                 
1 41477U 98067HX  17125.44223659  .00049023  00000-0  28880-3 0  9991
2 41477  51.6287 224.6867 0004803 318.0183  42.0449 15.77672071 55318
NODES 1                 
1 41478U 98067HY  17125.47172619  .00047244  00000-0  28325-3 0  9991
2 41478  51.6325 224.8916 0004504 319.6382  40.4283 15.77294742 55318
FLOCK 2E'-1             
1 41479U 98067HZ  17125.32551757  .00019840  00000-0  18424-3 0  9990
2 41479  51.6355 234.5085 0000938  47.8889 312.2187 15.67437922 55137
FLOCK 2E'-3             
1 41480U 98067JA  17125.54059161  .00013190  00000-0  12409-3 0  9997
2 41480  51.6357 232.9651 0000191 248.9574 111.1402 15.67481028 55163
FLOCK 2E'-2             
1 41481U 98067JB  17125.51104573  .00014890  00000-0  13541-3 0  9999
2 41481  51.6343 231.9852 0001509  33.5072 326.6020 15.68202235 55167
FLOCK 2E'-4             
1 41482U 98067JC  17125.52673889  .00017555  00000-0  14978-3 0  9998
2 41482  51.6343 231.3282 0001610 293.9796  66.1033 15.69620182 55174
FLOCK 2E-1              
1 41483U 98067ID  17125.54015421  .00012347  00000-0  11992-3 0  9990
2 41483  51.6370 233.7412 0001749 253.6308 106.4496 15.66758617 55017
FLOCK 2E-2              
1 41484U 98067JE  17125.50246778  .00016207  00000-0  14766-3 0  9999
2 41484  51.6380 232.7556 0001699 270.1529  89.9273 15.68076977 55023
FLOCK 2E-3              
1 41486U 98067JG  17125.59671260  .00011413  00000-0  11530-3 0  9998
2 41486  51.6365 234.8621 0002637 288.0955  71.9753 15.65858370 55024
FLOCK 2E-4              
1 41487U 98067JH  17125.53782259  .00013477  00000-0  12952-3 0  9995
2 41487  51.6366 233.6958 0003104 290.4744  69.5919 15.66927081 55034
FLOCK 2E-6              
1 41563U 98067JM  17125.55751667  .00009882  00000-0  10153-3 0  9997
2 41563  51.6359 235.3253 0001284  56.1898 303.9220 15.65617813 53083
FLOCK 2E-5              
1 41564U 98067JN  17125.56518774  .00010122  00000-0  10436-3 0  9992
2 41564  51.6360 235.3837 0001110  55.3368 304.7732 15.65496553 53077
FLOCK 2E-7              
1 41565U 98067JP  17125.51561586  .00016081  00000-0  14644-3 0  9992
2 41565  51.6356 232.7784 0004144 318.7727  41.2956 15.68092530 53004
FLOCK 2E-8              
1 41566U 98067JQ  17125.44707037  .00082737  00000-0  33606-3 0  9998
2 41566  51.6320 220.1752 0008270 334.5810  25.4786 15.85458714 53155
FLOCK 2E'-5             
1 41567U 98067JR  17125.60008751  .00009102  00000-0  97343-4 0  9998
2 41567  51.6369 236.3766 0004267 336.6301  23.4500 15.64712821 52939
FLOCK 2E'-6             
1 41568U 98067JS  17125.55962781  .00011118  00000-0  11052-3 0  9997
2 41568  51.6354 234.5754 0003886 333.8530  26.2269 15.66297932 52981
FLOCK 2E'-8             
1 41569U 98067JT  17125.55569353  .00013604  00000-0  12350-3 0  9990
2 41569  51.6353 232.3004 0001965 300.9933  59.0871 15.68336204 52894
FLOCK 2E'-7             
1 41570U 98067JU  17125.50690443  .00026269  00000-0  21282-3 0  9997
2 41570  51.6357 230.4892 0002980 279.0575  81.0085 15.70582498 52938
FLOCK 2E-9              
1 41571U 98067JV  17125.56516885  .00013819  00000-0  12351-3 0  9995
2 41571  51.6361 231.6273 0003807 321.0548  39.0174 15.68703190 52884
FLOCK 2E-10             
1 41572U 98067JW  17125.56578605  .00013199  00000-0  12394-3 0  9992
2 41572  51.6360 233.1347 0004241 323.9068  36.1642 15.67526215 52860
FLOCK 2E-12             
1 41573U 98067JX  17125.45990527  .00017913  00000-0  16194-3 0  9992
2 41573  51.6354 233.1683 0004011 334.3468  25.7329 15.68178723 52855
FLOCK 2E-11             
1 41574U 98067JY  17125.52387025  .00014322  00000-0  12930-3 0  9999
2 41574  51.6342 232.0564 0004708 336.5235  23.5546 15.68414604 52878
FLOCK 2E'-9             
1 41575U 98067JZ  17125.48090362  .00020402  00000-0  17595-3 0  9998
2 41575  51.6336 231.7510 0004468 348.1636  11.9256 15.69231722 52863
FLOCK 2E'-10            
1 41576U 98067KA  17125.57935681  .00014139  00000-0  12837-3 0  9995
2 41576  51.6364 232.4856 0004390 349.2683  10.8219 15.68290023 52768
FLOCK 2E'-11            
1 41577U 98067KB  17125.47481700  .00016435  00000-0  15121-3 0  9993
2 41577  51.6366 233.2939 0004616 330.1949  29.8784 15.67815522 52568
FLOCK 2E'-12            
1 41578U 98067KC  17125.56880216  .00016281  00000-0  14399-3 0  9994
2 41578  51.6344 232.3653 0005160 319.4529  40.6083 15.68797514 52583
LEMUR-2-DRMUZZ          
1 41595U 16019B   17125.51364120  .00123170  16668-4  40506-3 0  9992
2 41595  51.6296 213.8208 0004987 337.7343  22.3445 15.90307569 49959
